<?xml version="1.0" encoding="UTF-8"?>
<kml xmlns="http://www.opengis.net/kml/2.2" xmlns:gx="http://www.google.com/kml/ext/2.2" xmlns:kml="http://www.opengis.net/kml/2.2" xmlns:atom="http://www.w3.org/2005/Atom">
<Document>
	<name>sb_and_ojai-2014.kml</name>
	<open>1</open>
	<Style id="hl">
		<IconStyle>
			<scale>1.2</scale>
		</IconStyle>
	</Style>
	<StyleMap id="default">
		<Pair>
			<key>normal</key>
			<styleUrl>#default0</styleUrl>
		</Pair>
		<Pair>
			<key>highlight</key>
			<styleUrl>#hl</styleUrl>
		</Pair>
	</StyleMap>
	<Style id="default0">
	</Style>
	<Folder>
		<name>Waypoints</name>
		<open>1</open>
		<Placemark>
			<name>FILLLZ</name>
			<open>1</open>
			<description>Fillmore LZ</description>
			<styleUrl>#default</styleUrl>
			<Point>
				<altitudeMode>absolute</altitudeMode>
				<coordinates>-118.9137527777778,34.39523333333333,135</coordinates>
			</Point>
		</Placemark>
		<Placemark>
			<name>3STOGS</name>
			<description>3STOGS</description>
			<Point>
				<coordinates>-119.207775,34.484633,889</coordinates>
			</Point>
		</Placemark>
		<Placemark>
			<name>5050</name>
			<description>5050</description>
			<Point>
				<coordinates>-119.183664,34.725267,1475</coordinates>
			</Point>
		</Placemark>
		<Placemark>
			<name>ALTERN</name>
			<description>ALTERN</description>
			<Point>
				<coordinates>-119.728339,34.501303,1148</coordinates>
			</Point>
		</Placemark>
		<Placemark>
			<name>ANTFRM</name>
			<description>ANTFRM</description>
			<Point>
				<coordinates>-119.67785,34.466086,652</coordinates>
			</Point>
		</Placemark>
		<Placemark>
			<name>BADLZ</name>
			<description>BADLZ</description>
			<Point>
				<coordinates>-119.586342,34.439181,168</coordinates>
			</Point>
		</Placemark>
		<Placemark>
			<name>BOYDS</name>
			<description>BOYDS</description>
			<Point>
				<coordinates>-119.122317,34.459383,980</coordinates>
			</Point>
		</Placemark>
		<Placemark>
			<name>BRUCES</name>
			<description>BRUCES</description>
			<Point>
				<coordinates>-119.225897,34.484144,1006</coordinates>
			</Point>
		</Placemark>
		<Placemark>
			<name>BUMP3</name>
			<description>BUMP3</description>
			<Point>
				<coordinates>-119.373958,34.478753,1377</coordinates>
			</Point>
		</Placemark>
		<Placemark>
			<name>CALTNS</name>
			<description>CALTNS</description>
			<Point>
				<coordinates>-119.263628,34.565533,1043</coordinates>
			</Point>
		</Placemark>
		<Placemark>
			<name>CASTLE</name>
			<description>CASTLE</description>
			<Point>
				<coordinates>-119.570075,34.463547,971</coordinates>
			</Point>
		</Placemark>
		<Placemark>
			<name>CATHDL</name>
			<description>CATHDL</description>
			<Point>
				<coordinates>-119.714658,34.482908,971</coordinates>
			</Point>
		</Placemark>
		<Placemark>
			<name>COCOLZ</name>
			<description>COCOLZ</description>
			<Point>
				<coordinates>-119.754567,34.457331,110</coordinates>
			</Point>
		</Placemark>
		<Placemark>
			<name>EBEACH</name>
			<description>EBEACH</description>
			<Point>
				<coordinates>-119.67565,34.415583,1</coordinates>
			</Point>
		</Placemark>
		<Placemark>
			<name>EDIVID</name>
			<description>EDIVID</description>
			<Point>
				<coordinates>-119.429047,34.469772,1244</coordinates>
			</Point>
		</Placemark>
		<Placemark>
			<name>EJLNCH</name>
			<description>EJ Bowl Launch</description>
			<Point>
				<coordinates>-119.702972,34.494369,1140</coordinates>
			</Point>
		</Placemark>
		<Placemark>
			<name>ELINGS</name>
			<description>ELINGS</description>
			<Point>
				<coordinates>-119.735122,34.409192,110</coordinates>
			</Point>
		</Placemark>
		<Placemark>
			<name>EREPET</name>
			<description>EREPET</description>
			<Point>
				<coordinates>-119.139064,34.465514,1060</coordinates>
			</Point>
		</Placemark>
		<Placemark>
			<name>FIRELZ</name>
			<description>FIRELZ</description>
			<Point>
				<coordinates>-119.678747,34.450997,210</coordinates>
			</Point>
		</Placemark>
		<Placemark>
			<name>FRAZER</name>
			<description>FRAZER</description>
			<Point>
				<coordinates>-118.969289,34.774669,2439</coordinates>
			</Point>
		</Placemark>
		<Placemark>
			<name>GOLFLZ</name>
			<description>GOLFLZ</description>
			<Point>
				<coordinates>-119.606744,34.435928,77</coordinates>
			</Point>
		</Placemark>
		<Placemark>
			<name>HLYHLS</name>
			<description>HLYHLS</description>
			<Point>
				<coordinates>-119.697858,34.47755,794.9999999999999</coordinates>
			</Point>
		</Placemark>
		<Placemark>
			<name>HOTDOG</name>
			<description>HOTDOG</description>
			<Point>
				<coordinates>-119.496464,34.386464,35</coordinates>
			</Point>
		</Placemark>
		<Placemark>
			<name>LACUMB</name>
			<description>LACUMB</description>
			<Point>
				<coordinates>-119.713458,34.494906,1202</coordinates>
			</Point>
		</Placemark>
		<Placemark>
			<name>LOCKWD</name>
			<description>LOCKWD</description>
			<Point>
				<coordinates>-119.105642,34.725333,1577</coordinates>
			</Point>
		</Placemark>
		<Placemark>
			<name>MNTCTO</name>
			<description>MNTCTO</description>
			<Point>
				<coordinates>-119.638367,34.47235,924</coordinates>
			</Point>
		</Placemark>
		<Placemark>
			<name>NOONPK</name>
			<description>NOONPK</description>
			<Point>
				<coordinates>-119.474864,34.467231,1216</coordinates>
			</Point>
		</Placemark>
		<Placemark>
			<name>NORDLZ</name>
			<description>NORDLZ</description>
			<Point>
				<coordinates>-119.266961,34.443661,230</coordinates>
			</Point>
		</Placemark>
		<Placemark>
			<name>NORDPK</name>
			<description>NORDPK</description>
			<Point>
				<coordinates>-119.242111,34.498047,1358</coordinates>
			</Point>
		</Placemark>
		<Placemark>
			<name>NUTHSE</name>
			<description>NUTHSE</description>
			<Point>
				<coordinates>-119.290681,34.486564,586</coordinates>
			</Point>
		</Placemark>
		<Placemark>
			<name>PADBCH</name>
			<description>PADBCH</description>
			<Point>
				<coordinates>-119.549686,34.406686,4</coordinates>
			</Point>
		</Placemark>
		<Placemark>
			<name>PARMA</name>
			<description>PARMA</description>
			<Point>
				<coordinates>-119.687633,34.447467,208</coordinates>
			</Point>
		</Placemark>
		<Placemark>
			<name>PINE</name>
			<description>PINE</description>
			<Point>
				<coordinates>-119.305686,34.635689,2173</coordinates>
			</Point>
		</Placemark>
		<Placemark>
			<name>PINOS</name>
			<description>PINOS</description>
			<Point>
				<coordinates>-119.143142,34.81285,2658</coordinates>
			</Point>
		</Placemark>
		<Placemark>
			<name>PKLNLZ</name>
			<description>PKLNLZ</description>
			<Point>
				<coordinates>-119.617689,34.444583,134</coordinates>
			</Point>
		</Placemark>
		<Placemark>
			<name>PTDCAV</name>
			<description>PTDCAV</description>
			<Point>
				<coordinates>-119.796728,34.513708,838.9999999999999</coordinates>
			</Point>
		</Placemark>
		<Placemark>
			<name>PUCKRS</name>
			<description>PUCKRS</description>
			<Point>
				<coordinates>-119.107411,34.452622,884</coordinates>
			</Point>
		</Placemark>
		<Placemark>
			<name>PWRLNS</name>
			<description>PWRLNS</description>
			<Point>
				<coordinates>-119.494361,34.465736,1131</coordinates>
			</Point>
		</Placemark>
		<Placemark>
			<name>PYRAMD</name>
			<description>PYRAMD</description>
			<Point>
				<coordinates>-119.257233,34.485139,1062</coordinates>
			</Point>
		</Placemark>
		<Placemark>
			<name>RELNCH</name>
			<description>RELNCH</description>
			<Point>
				<coordinates>-119.364872,34.448286,729</coordinates>
			</Point>
		</Placemark>
		<Placemark>
			<name>REPETR</name>
			<description>REPETR</description>
			<Point>
				<coordinates>-119.141361,34.499225,1678</coordinates>
			</Point>
		</Placemark>
		<Placemark>
			<name>ROBINS</name>
			<description>ROBINS</description>
			<Point>
				<coordinates>-119.7282,34.465886,278</coordinates>
			</Point>
		</Placemark>
		<Placemark>
			<name>ROKGDN</name>
			<description>ROKGDN</description>
			<Point>
				<coordinates>-119.146133,34.489133,1445</coordinates>
			</Point>
		</Placemark>
		<Placemark>
			<name>ROMERO</name>
			<description>ROMERO</description>
			<Point>
				<coordinates>-119.601464,34.465294,924</coordinates>
			</Point>
		</Placemark>
		<Placemark>
			<name>ROMRLZ</name>
			<description>ROMRLZ</description>
			<Point>
				<coordinates>-119.5977,34.445567,157</coordinates>
			</Point>
		</Placemark>
		<Placemark>
			<name>ROSVLY</name>
			<description>ROSVLY</description>
			<Point>
				<coordinates>-119.231042,34.531419,1072</coordinates>
			</Point>
		</Placemark>
		<Placemark>
			<name>RR</name>
			<description>RR</description>
			<Point>
				<coordinates>-119.692956,34.485308,1104</coordinates>
			</Point>
		</Placemark>
		<Placemark>
			<name>SANDPL</name>
			<description>SANDPL</description>
			<Point>
				<coordinates>-119.336067,34.599089,1245</coordinates>
			</Point>
		</Placemark>
		<Placemark>
			<name>SANTAC</name>
			<description>SANTAC</description>
			<Point>
				<coordinates>-119.552489,34.409228,3</coordinates>
			</Point>
		</Placemark>
		<Placemark>
			<name>SHADOW</name>
			<description>SHADOW</description>
			<Point>
				<coordinates>-119.653119,34.471506,810</coordinates>
			</Point>
		</Placemark>
		<Placemark>
			<name>SKYPRT</name>
			<description>SKYPRT</description>
			<Point>
				<coordinates>-119.684511,34.481072,920</coordinates>
			</Point>
		</Placemark>
		<Placemark>
			<name>SMPASS</name>
			<description>SMPASS</description>
			<Point>
				<coordinates>-119.822992,34.509617,667</coordinates>
			</Point>
		</Placemark>
		<Placemark>
			<name>SMPLZ</name>
			<description>San Marcos Pass LZs</description>
			<Point>
				<coordinates>-119.786131,34.46525,124</coordinates>
			</Point>
		</Placemark>
		<Placemark>
			<name>SPGAS</name>
			<description>SPGAS</description>
			<Point>
				<coordinates>-119.04105,34.361056,91</coordinates>
			</Point>
		</Placemark>
		<Placemark>
			<name>SPPEAK</name>
			<description>SPPEAK</description>
			<Point>
				<coordinates>-119.009583,34.440317,1503</coordinates>
			</Point>
		</Placemark>
		<Placemark>
			<name>SPRIDG</name>
			<description>SPRIDG</description>
			<Point>
				<coordinates>-119.070772,34.435347,788.0000000000001</coordinates>
			</Point>
		</Placemark>
		<Placemark>
			<name>STMARY</name>
			<description>STMARY</description>
			<Point>
				<coordinates>-119.692781,34.458233,296</coordinates>
			</Point>
		</Placemark>
		<Placemark>
			<name>TBOWLZ</name>
			<description>Tea Bowl LZ</description>
			<Point>
				<coordinates>-119.658328,34.458889,435</coordinates>
			</Point>
		</Placemark>
		<Placemark>
			<name>THE-T</name>
			<description>THE-T</description>
			<Point>
				<coordinates>-119.766794,34.457778,139</coordinates>
			</Point>
		</Placemark>
		<Placemark>
			<name>THERMF</name>
			<description>THERMF</description>
			<Point>
				<coordinates>-119.674894,34.477925,977.9999999999999</coordinates>
			</Point>
		</Placemark>
		<Placemark>
			<name>TOPATO</name>
			<description>TOPATO</description>
			<Point>
				<coordinates>-119.103861,34.487286,1772</coordinates>
			</Point>
		</Placemark>
		<Placemark>
			<name>TORO</name>
			<description>TORO</description>
			<Point>
				<coordinates>-119.549778,34.463847,1034</coordinates>
			</Point>
		</Placemark>
		<Placemark>
			<name>TOROLZ</name>
			<description>Toro Canyon LZs</description>
			<Point>
				<coordinates>-119.566383,34.435225,200</coordinates>
			</Point>
		</Placemark>
		<Placemark>
			<name>TWNPKS</name>
			<description>TWNPKS</description>
			<Point>
				<coordinates>-119.178239,34.481064,1011</coordinates>
			</Point>
		</Placemark>
		<Placemark>
			<name>VOR</name>
			<description>VOR</description>
			<Point>
				<coordinates>-119.770747,34.509647,1097</coordinates>
			</Point>
		</Placemark>
		<Placemark>
			<name>WBOWL</name>
			<description>WBOWL</description>
			<Point>
				<coordinates>-119.737728,34.488364,936</coordinates>
			</Point>
		</Placemark>
		<Placemark>
			<name>WDIVID</name>
			<description>WDIVID</description>
			<Point>
				<coordinates>-119.445717,34.471631,1368</coordinates>
			</Point>
		</Placemark>
		<Placemark>
			<name>WEBOLZ</name>
			<description>WEBOLZ</description>
			<Point>
				<coordinates>-119.755206,34.473542,331</coordinates>
			</Point>
		</Placemark>
		<Placemark>
			<name>WHTLDG</name>
			<description>WHTLDG</description>
			<Point>
				<coordinates>-119.391919,34.469903,1397</coordinates>
			</Point>
		</Placemark>
		<Placemark>
			<name>WREPET</name>
			<description>WREPET</description>
			<Point>
				<coordinates>-119.1589,34.473181,1008</coordinates>
			</Point>
		</Placemark>
		<Placemark>
			<name>WROMRO</name>
			<description>WROMRO</description>
			<Point>
				<coordinates>-119.616125,34.464386,786.9999999999999</coordinates>
			</Point>
		</Placemark>
		<Placemark>
			<name>WSMTLZ</name>
			<description>WSMTLZ</description>
			<Point>
				<coordinates>-119.662369,34.444528,158</coordinates>
			</Point>
		</Placemark>
	</Folder>
</Document>
</kml>
